TIGER-6                 
1 58272U 23174S   26068.73366727  .00113437  00000+0  98002-3 0  9994
2 58272  97.3904 161.9275 0003121 155.9023 204.2385 15.68857868130641
STARLINK-11335 [DTC]    
1 61687U 24195A   26068.27460833 -.00001525  00000+0 -77362-5 0  9998
2 61687  53.1592  28.6590 0001031  90.4126 269.7010 15.69706931 78964
