[{"OBJECT_NAME":"TIGER-6","OBJECT_ID":"2023-174S","EPOCH":"2026-03-09T17:36:28.852992","MEAN_MOTION":15.68857868,"ECCENTRICITY":0.0003121,"INCLINATION":97.3904,"RA_OF_ASC_NODE":161.9275,"ARG_OF_PERICENTER":155.9023,"MEAN_ANOMALY":204.2385,"EPHEMERIS_TYPE":0,"CLASSIFICATION_TYPE":"U","NORAD_CAT_ID":58272,"ELEMENT_SET_NO":999,"REV_AT_EPOCH":13064,"BSTAR":0.00098002434,"MEAN_MOTION_DOT":0.00113437,"MEAN_MOTION_DDOT":0},{"OBJECT_NAME":"STARLINK-11335 [DTC]","OBJECT_ID":"2024-195A","EPOCH":"2026-03-09T06:35:26.159712","MEAN_MOTION":15.69706931,"ECCENTRICITY":0.00010317,"INCLINATION":53.1592,"RA_OF_ASC_NODE":28.659,"ARG_OF_PERICENTER":90.4126,"MEAN_ANOMALY":269.701,"EPHEMERIS_TYPE":0,"CLASSIFICATION_TYPE":"U","NORAD_CAT_ID":61687,"ELEMENT_SET_NO":999,"REV_AT_EPOCH":7896,"BSTAR":-7.736201e-6,"MEAN_MOTION_DOT":-1.525e-5,"MEAN_MOTION_DDOT":0}]
